NORAD_CAT_ID,OBJECT_NAME,OBJECT_TYPE,EPOCH,MEAN_MOTION,ECCENTRICITY,INCLINATION,RA_OF_ASC_NODE,ARG_OF_PERICENTER,MEAN_ANOMALY,BSTAR,MEAN_MOTION_DOT,MEAN_MOTION_DDOT,TLE_LINE0,TLE_LINE1,TLE_LINE2,SEMIMAJOR_AXIS,PERIOD,APOGEE,PERIGEE,DECAYED
53782.0,STARLINK-4679,PAYLOAD,2023-03-12 04:32:18,15.08827271,0.0001452,53.2177,143.1159,84.4359,275.6799,-7.5951e-05,-1.496e-05,0.0,0 STARLINK-4679,1 53782U 22111K   23071.18910715 -.00001496  00000-0 -75951-4 0  9990,2 53782  53.2177 143.1159 0001452  84.4359 275.6799 15.08827271 27804,6917.919,95.438,540.789,538.78,0.0
53782.0,STARLINK-4679,PAYLOAD,2023-03-12 14:04:36,15.08851252,0.0001227,53.2189,141.3265,115.6761,244.4358,1.6585e-06,-2.61e-06,0.0,0 STARLINK-4679,1 53782U 22111K   23071.58652978 -.00000261  00000-0  16585-5 0  9995,2 53782  53.2189 141.3265 0001227 115.6761 244.4358 15.08851252 27866,6917.846,95.437,540.56,538.862,0.0
53782.0,STARLINK-4679,PAYLOAD,2023-03-13 04:23:05,15.08828546,0.0001467,53.2172,138.6511,91.011,269.105,0.00021165,3.081e-05,0.0,0 STARLINK-4679,1 53782U 22111K   23072.18269858  .00003081  00000-0  21165-3 0  9993,2 53782  53.2172 138.6511 0001467  91.0110 269.1050 15.08828546 27955,6917.915,95.438,540.795,538.766,0.0
53782.0,STARLINK-4679,PAYLOAD,2023-03-14 10:35:24,15.08842167,0.0001378,53.2169,133.0004,105.2212,254.8933,7.2672e-06,-1.72e-06,0.0,0 STARLINK-4679,1 53782U 22111K   23073.44126046 -.00000172  00000-0  72672-5 0  9994,2 53782  53.2169 133.0004 0001378 105.2212 254.8933 15.08842167 28147,6917.874,95.437,540.692,538.785,0.0
53782.0,STARLINK-4679,PAYLOAD,2023-03-15 04:04:38,15.08846964,0.0001262,53.2173,129.7327,75.3679,284.7453,7.6318e-05,9.27e-06,0.0,0 STARLINK-4679,1 53782U 22111K   23074.16989320  .00000927  00000-0  76318-4 0  9993,2 53782  53.2173 129.7327 0001262  75.3679 284.7453 15.08846964 28258,6917.859,95.437,540.597,538.851,0.0
53782.0,STARLINK-4679,PAYLOAD,2023-03-15 08:50:47,15.08853865,0.0001433,53.2175,128.8427,68.5687,291.5457,0.00012181,1.652e-05,0.0,0 STARLINK-4679,1 53782U 22111K   23074.36860643  .00001652  00000-0  12181-3 0  9994,2 53782  53.2175 128.8427 0001433  68.5687 291.5457 15.08853865 28285,6917.838,95.437,540.694,538.712,0.0
53782.0,STARLINK-4679,PAYLOAD,2023-03-15 19:58:29,15.0884886,0.0001437,53.2162,126.7574,68.1396,291.9749,9.2365e-05,1.183e-05,0.0,0 STARLINK-4679,1 53782U 22111K   23074.83228631  .00001183  00000-0  92365-4 0  9993,2 53782  53.2162 126.7574 0001437  68.1396 291.9749 15.08848860 29163,6917.853,95.437,540.712,538.724,0.0
53782.0,STARLINK-4679,PAYLOAD,2023-03-16 03:55:26,15.08832021,0.0001473,53.2181,125.2728,89.4761,270.64,-8.0272e-05,-1.565e-05,0.0,0 STARLINK-4679,1 53782U 22111K   23075.16350265 -.00001565  00000-0 -80272-4 0  9999,2 53782  53.2181 125.2728 0001473  89.4761 270.6400 15.08832021 28407,6917.905,95.438,540.789,538.751,0.0
53782.0,STARLINK-4679,PAYLOAD,2023-03-16 10:16:59,15.088344,0.0001457,53.2179,124.0836,87.071,273.0449,-4.8952e-05,-1.067e-05,0.0,0 STARLINK-4679,1 53782U 22111K   23075.42846096 -.00001067  00000-0 -48952-4 0  9996,2 53782  53.2179 124.0836 0001457  87.0710 273.0449 15.08834400 29258,6917.898,95.438,540.77,538.755,0.0
53782.0,STARLINK-4679,PAYLOAD,2023-03-16 19:49:18,15.08831219,0.0001363,53.2167,122.2982,84.3948,275.72,-0.00010924,-2.026e-05,0.0,0 STARLINK-4679,1 53782U 22111K   23075.82590599 -.00002026  00000-0 -10924-3 0  9997,2 53782  53.2167 122.2982 0001363  84.3948 275.7200 15.08831219 29312,6917.907,95.438,540.715,538.829,0.0
53782.0,STARLINK-4679,PAYLOAD,2023-03-17 10:07:46,15.08833468,0.0001495,53.2187,119.6236,97.8058,262.3103,-0.00018322,-3.202e-05,0.0,0 STARLINK-4679,1 53782U 22111K   23076.42207084 -.00003202  00000-0 -18322-3 0  9995,2 53782  53.2187 119.6236 0001495  97.8058 262.3103 15.08833468 28594,6917.9,95.438,540.8,538.731,0.0
53782.0,STARLINK-4679,PAYLOAD,2023-03-17 19:40:05,15.08835021,0.0001616,53.2186,117.8387,95.2583,264.8593,-2.8411e-05,-7.4e-06,0.0,0 STARLINK-4679,1 53782U 22111K   23076.81950679 -.00000740  00000-0 -28411-4 0  9998,2 53782  53.2186 117.8387 0001616  95.2583 264.8593 15.08835021 29464,6917.896,95.438,540.879,538.643,0.0
53782.0,STARLINK-4679,PAYLOAD,2023-03-18 03:37:00,15.08836387,0.0001253,53.2179,116.3513,99.8969,260.2165,0.00020162,2.922e-05,0.0,0 STARLINK-4679,1 53782U 22111K   23077.15069794  .00002922  00000-0  20162-3 0  9991,2 53782  53.2179 116.3513 0001253  99.8969 260.2165 15.08836387 28703,6917.891,95.438,540.623,538.89,0.0
53782.0,STARLINK-4679,PAYLOAD,2023-03-18 09:58:32,15.08847067,0.0001374,53.2178,115.1615,103.2569,256.8577,0.0001833,2.631e-05,0.0,0 STARLINK-4679,1 53782U 22111K   23077.41565241  .00002631  00000-0  18330-3 0  9999,2 53782  53.2178 115.1615 0001374 103.2569 256.8577 15.08847067 28741,6917.859,95.437,540.674,538.773,0.0
53782.0,STARLINK-4679,PAYLOAD,2023-03-18 19:30:51,15.08842086,0.0001201,53.2172,113.3764,89.3734,270.7395,9.4314e-05,1.214e-05,0.0,0 STARLINK-4679,1 53782U 22111K   23077.81309782  .00001214  00000-0  94314-4 0  9992,2 53782  53.2172 113.3764 0001201  89.3734 270.7395 15.08842086 28803,6917.874,95.437,540.57,538.908,0.0
53782.0,STARLINK-4679,PAYLOAD,2023-03-19 01:52:24,15.08831478,0.0001436,53.2172,112.1878,88.2107,271.9049,0.00017847,2.553e-05,0.0,0 STARLINK-4679,1 53782U 22111K   23078.07806372  .00002553  00000-0  17847-3 0  9990,2 53782  53.2172 112.1878 0001436  88.2107 271.9049 15.08831478 28844,6917.906,95.438,540.765,538.778,0.0
53782.0,STARLINK-4679,PAYLOAD,2023-03-19 09:49:20,15.0883544,0.0001305,53.2175,110.7014,90.5473,269.5669,0.00010237,1.342e-05,0.0,0 STARLINK-4679,1 53782U 22111K   23078.40926494  .00001342  00000-0  10237-3 0  9996,2 53782  53.2175 110.7014 0001305  90.5473 269.5669 15.08835440 29700,6917.894,95.438,540.662,538.857,0.0
53782.0,STARLINK-4679,PAYLOAD,2023-03-19 19:21:39,15.08836192,0.0001301,53.2169,108.9179,92.2347,267.8794,0.00012674,1.73e-05,0.0,0 STARLINK-4679,1 53782U 22111K   23078.80670396  .00001730  00000-0  12674-3 0  9995,2 53782  53.2169 108.9179 0001301  92.2347 267.8794 15.08836192 29760,6917.892,95.438,540.657,538.857,0.0
53782.0,STARLINK-4679,PAYLOAD,2023-03-20 08:04:43,15.08848722,0.0001425,53.2172,106.5372,96.3336,263.7819,-6.4579e-06,-3.91e-06,0.0,0 STARLINK-4679,1 53782U 22111K   23079.33661860 -.00000391  00000-0 -64579-5 0  9997,2 53782  53.2172 106.5372 0001425  96.3336 263.7819 15.08848722 29038,6917.854,95.437,540.705,538.733,0.0
53782.0,STARLINK-4679,PAYLOAD,2023-03-20 19:12:26,15.08841187,0.0001351,53.2156,104.4551,84.9639,275.1508,-3.7143e-05,-8.79e-06,0.0,0 STARLINK-4679,1 53782U 22111K   23079.80030249 -.00000879  00000-0 -37143-4 0  9997,2 53782  53.2156 104.4551 0001351  84.9639 275.1508 15.08841187 29101,6917.877,95.437,540.676,538.807,0.0
53782.0,STARLINK-4679,PAYLOAD,2023-03-21 07:55:31,15.08838462,0.0001317,53.216,102.0756,97.3085,262.8057,-9.5411e-07,-3.03e-06,0.0,0 STARLINK-4679,1 53782U 22111K   23080.33022291 -.00000303  00000-0 -95411-6 0  9991,2 53782  53.2160 102.0756 0001317  97.3085 262.8057 15.08838462 29993,6917.885,95.438,540.661,538.839,0.0
53782.0,STARLINK-4679,PAYLOAD,2023-03-22 06:10:55,15.088489,0.0001667,53.2162,97.9113,98.2783,261.8399,-0.00011879,-2.179e-05,0.0,0 STARLINK-4679,1 53782U 22111K   23081.25758108 -.00002179  00000-0 -11879-3 0  9992,2 53782  53.2162  97.9113 0001667  98.2783 261.8399 15.08848900 29320,6917.853,95.437,540.871,538.565,0.0
53782.0,STARLINK-4679,PAYLOAD,2023-03-22 07:46:18,15.08841678,0.0001368,53.2172,97.615,99.098,261.0166,5.2712e-06,-2.04e-06,0.0,0 STARLINK-4679,1 53782U 22111K   23081.32382204 -.00000204  00000-0  52712-5 0  9999,2 53782  53.2172  97.6150 0001368  99.0980 261.0166 15.08841678 30146,6917.875,95.437,540.687,538.794,0.0
53782.0,STARLINK-4679,PAYLOAD,2023-03-23 04:26:19,15.08806973,0.0001291,53.2177,93.7495,109.5759,250.5372,0.00045571,6.966e-05,0.0,0 STARLINK-4679,1 53782U 22111K   23082.18495047  .00006966  00000-0  45571-3 0  9997,2 53782  53.2177  93.7495 0001291 109.5759 250.5372 15.08806973 29460,6917.981,95.44,540.739,538.953,0.0
53782.0,STARLINK-4679,PAYLOAD,2023-03-23 07:37:05,15.08841487,0.0001407,53.2179,93.1548,95.7651,264.3502,6.669e-05,7.74e-06,0.0,0 STARLINK-4679,1 53782U 22111K   23082.31742071  .00000774  00000-0  66690-4 0  9991,2 53782  53.2179  93.1548 0001407  95.7651 264.3502 15.08841487 29480,6917.876,95.437,540.714,538.767,0.0
53782.0,STARLINK-4679,PAYLOAD,2023-03-24 05:52:29,15.08844135,0.0001401,53.2178,88.9913,101.0443,259.0707,4.8899e-05,4.9e-06,0.0,0 STARLINK-4679,1 53782U 22111K   23083.24478168  .00000490  00000-0  48899-4 0  9993,2 53782  53.2178  88.9913 0001401 101.0443 259.0707 15.08844135 30439,6917.868,95.437,540.702,538.764,0.0
53782.0,STARLINK-4679,PAYLOAD,2023-03-24 17:00:11,15.08841088,0.0001361,53.218,86.9115,98.6272,261.4874,2.3678e-05,8.9e-07,0.0,0 STARLINK-4679,1 53782U 22111K   23083.70846349  .00000089  00000-0  23678-4 0  9996,2 53782  53.2180  86.9115 0001361  98.6272 261.4874 15.08841088 29692,6917.877,95.437,540.684,538.801,0.0
53782.0,STARLINK-4679,PAYLOAD,2023-03-25 05:43:16,15.08841138,0.000203,53.2193,84.5375,132.9653,227.151,-0.00014004,-2.516e-05,0.0,0 STARLINK-4679,1 53782U 22111K   23084.23839101 -.00002516  00000-0 -14004-3 0  9994,2 53782  53.2193  84.5375 0002030 132.9653 227.1510 15.08841138 29778,6917.877,95.437,541.146,538.338,0.0
53782.0,STARLINK-4679,PAYLOAD,2023-03-25 16:50:58,15.08837098,0.0001457,53.2192,82.4515,95.1257,264.9902,3.5838e-05,2.82e-06,0.0,0 STARLINK-4679,1 53782U 22111K   23084.70206888  .00000282  00000-0  35838-4 0  9991,2 53782  53.2192  82.4515 0001457  95.1257 264.9902 15.08837098 30655,6917.889,95.438,540.762,538.746,0.0
53782.0,STARLINK-4679,PAYLOAD,2023-03-26 07:09:26,15.08844931,0.0001359,53.219,79.775,93.6255,266.4893,5.083e-05,5.21e-06,0.0,0 STARLINK-4679,1 53782U 22111K   23085.29822410  .00000521  00000-0  50830-4 0  9996,2 53782  53.2190  79.7750 0001359  93.6255 266.4893 15.08844931 29934,6917.865,95.437,540.67,538.79,0.0
